ONEWEB-0053             
1 45157U 20008AC  23251.39480011  .00006903  00000+0  19684-1 0  9997
2 45157  87.8829 237.4145 0001509  81.2810 278.8488 13.10509816176033
ONEWEB-0054             
1 45158U 20008AD  23251.43000229  .00000711  00000+0  20005-2 0  9993
2 45158  87.8816 237.3944 0001940  86.8100 273.3250 13.10404041176152
ONEWEB-0056             
1 45159U 20008AE  23251.41083908  .00021399  00000+0  61117-1 0  9990
2 45159  87.8823 237.3936 0002083  74.2897 285.8460 13.10381624176304
ONEWEB-0057             
1 45160U 20008AF  23251.41721727  .00005244  00000+0  14964-1 0  9999
2 45160  87.8822 237.3851 0001927  94.1718 265.9630 13.10433340176200
ONEWEB-0058             
1 45161U 20008AG  23251.40441016  .00000386  00000+0  10678-2 0  9990
2 45161  87.8838 237.4308 0002070  82.3580 277.7783 13.10508897176538
ONEWEB-0059             
1 45162U 20008AH  23251.40120039  .00001172  00000+0  33126-2 0  9997
2 45162  87.8829 237.4059 0001477  89.8693 270.2603 13.10512360176426
ONEWEB-0062             
1 45163U 20008AJ  23251.42841225  .00000353  00000+0  97357-3 0  9994
2 45163  87.8820 237.3883 0001938  87.0517 273.0832 13.10412265176304
ONEWEB-0065             
1 45164U 20008AK  23251.02427221  .00008162  00000+0  23295-1 0  9991
2 45164  87.8821 237.4632 0001826  87.0632 273.0704 13.10457235175935
